start=new Date('2023-01-05T00:00:00.000Z').valueOf();
sats=[{"DECAY_DATE":null,"CLASSIFICATION_TYPE":"U","ELEMENT_SET_NO":"999","NORAD_CAT_ID":"48331","MEAN_ANOMALY":"317.5349","BSTAR":"0.00018585000000","EPHEMERIS_TYPE":"0","MEAN_MOTION_DOT":"0.00002487","PERIOD":"95.592","ECCENTRICITY":"0.00021540","OBJECT_NAME":"STARLINK-2514","ARG_OF_PERICENTER":"42.5806","SEMIMAJOR_AXIS":"6925.357","OBJECT_TYPE":"PAYLOAD","APOAPSIS":"548.714","TLE_LINE1":"1 48331U 21036BH  23004.07132231  .00002487  00000-0  18585-3 0  9990","RCS_SIZE":"LARGE","MEAN_MOTION_DDOT":"0.0000000000000","FILE":"3731823","MEAN_MOTION":"15.06397289","PERIAPSIS":"545.730","OBJECT_ID":"2021-036BH","TIME_SYSTEM":"UTC","LAUNCH_DATE":"2021-04-29","EPOCH":"2023-01-04T01:42:42.247584","INCLINATION":"53.0548","MEAN_ELEMENT_THEORY":"SGP4","COUNTRY_CODE":"US","REF_FRAME":"TEME","REV_AT_EPOCH":"9310","RA_OF_ASC_NODE":"271.8479","GP_ID":"222159064","CENTER_NAME":"EARTH","SITE":"AFETR","TLE_LINE2":"2 48331  53.0548 271.8479 0002154  42.5806 317.5349 15.06397289 93106"},{"COUNTRY_CODE":"US","REF_FRAME":"TEME","REV_AT_EPOCH":"9376","RA_OF_ASC_NODE":"269.7434","GP_ID":"222131036","CENTER_NAME":"EARTH","SITE":"AFETR","TLE_LINE2":"2 48332  53.0537 269.7434 0001182  75.7197 284.3924 15.06410029 93763","MEAN_MOTION":"15.06410029","FILE":"3731557","MEAN_MOTION_DDOT":"0.0000000000000","OBJECT_ID":"2021-036BJ","PERIAPSIS":"546.364","MEAN_ELEMENT_THEORY":"SGP4","LAUNCH_DATE":"2021-04-29","INCLINATION":"53.0537","EPOCH":"2023-01-04T12:50:06.612864","TIME_SYSTEM":"UTC","ECCENTRICITY":"0.00011820","OBJECT_NAME":"STARLINK-2511","OBJECT_TYPE":"PAYLOAD","SEMIMAJOR_AXIS":"6925.318","ARG_OF_PERICENTER":"75.7197","APOAPSIS":"548.001","TLE_LINE1":"1 48332U 21036BJ  23004.53479876  .00003853  00000-0  27734-3 0  9995","RCS_SIZE":"LARGE","DECAY_DATE":null,"CLASSIFICATION_TYPE":"U","ELEMENT_SET_NO":"999","NORAD_CAT_ID":"48332","BSTAR":"0.00027734000000","EPHEMERIS_TYPE":"0","MEAN_ANOMALY":"284.3924","PERIOD":"95.592","MEAN_MOTION_DOT":"0.00003853"},{"OBJECT_TYPE":"PAYLOAD","ARG_OF_PERICENTER":"46.7767","SEMIMAJOR_AXIS":"6925.320","ECCENTRICITY":"0.00020000","OBJECT_NAME":"STARLINK-2518","RCS_SIZE":"LARGE","APOAPSIS":"548.570","TLE_LINE1":"1 48333U 21036BK  23004.46202963  .00005531  00000-0  38982-3 0  9991","ELEMENT_SET_NO":"999","NORAD_CAT_ID":"48333","DECAY_DATE":null,"CLASSIFICATION_TYPE":"U","PERIOD":"95.592","MEAN_MOTION_DOT":"0.00005531","EPHEMERIS_TYPE":"0","BSTAR":"0.00038982000000","MEAN_ANOMALY":"313.3389","REF_FRAME":"TEME","RA_OF_ASC_NODE":"270.0948","REV_AT_EPOCH":"9316","COUNTRY_CODE":"US","SITE":"AFETR","TLE_LINE2":"2 48333  53.0546 270.0948 0002000  46.7767 313.3389 15.06409247 93162","GP_ID":"222158063","CENTER_NAME":"EARTH","OBJECT_ID":"2021-036BK","PERIAPSIS":"545.800","MEAN_MOTION":"15.06409247","MEAN_MOTION_DDOT":"0.0000000000000","FILE":"3731823","LAUNCH_DATE":"2021-04-29","EPOCH":"2023-01-04T11:05:19.360032","INCLINATION":"53.0546","MEAN_ELEMENT_THEORY":"SGP4","TIME_SYSTEM":"UTC"},{"MEAN_MOTION":"15.06410616","MEAN_MOTION_DDOT":"0.0000000000000","FILE":"3731823","OBJECT_ID":"2021-036BL","PERIAPSIS":"546.004","INCLINATION":"53.0557","LAUNCH_DATE":"2021-04-29","EPOCH":"2023-01-04T11:00:00.561312","MEAN_ELEMENT_THEORY":"SGP4","TIME_SYSTEM":"UTC","COUNTRY_CODE":"US","REF_FRAME":"TEME","REV_AT_EPOCH":"9316","RA_OF_ASC_NODE":"270.0953","GP_ID":"222158313","CENTER_NAME":"EARTH","SITE":"AFETR","TLE_LINE2":"2 48334  53.0557 270.0953 0001699  71.8549 288.2625 15.06410616 93166","DECAY_DATE":null,"CLASSIFICATION_TYPE":"U","ELEMENT_SET_NO":"999","NORAD_CAT_ID":"48334","BSTAR":"0.00042191000000","EPHEMERIS_TYPE":"0","MEAN_ANOMALY":"288.2625","PERIOD":"95.591","MEAN_MOTION_DOT":"0.00006010","ECCENTRICITY":"0.00016990","OBJECT_NAME":"STARLINK-2470","OBJECT_TYPE":"PAYLOAD","SEMIMAJOR_AXIS":"6925.316","ARG_OF_PERICENTER":"71.8549","APOAPSIS":"548.358","TLE_LINE1":"1 48334U 21036BL  23004.45833983  .00006010  00000-0  42191-3 0  9993","RCS_SIZE":"LARGE"},{"MEAN_MOTION":"15.06403897","MEAN_MOTION_DDOT":"0.0000000000000","FILE":"3731823","OBJECT_ID":"2021-036BM","PERIAPSIS":"546.411","MEAN_ELEMENT_THEORY":"SGP4","LAUNCH_DATE":"2021-04-29","INCLINATION":"53.0533","EPOCH":"2023-01-04T10:54:42.240384","TIME_SYSTEM":"UTC","COUNTRY_CODE":"US","REF_FRAME":"TEME","REV_AT_EPOCH":"9316","RA_OF_ASC_NODE":"270.1218","GP_ID":"222158564","CENTER_NAME":"EARTH","SITE":"AFETR","TLE_LINE2":"2 48335  53.0533 270.1218 0001141 101.3784 258.7333 15.06403897 93169","DECAY_DATE":null,"CLASSIFICATION_TYPE":"U","ELEMENT_SET_NO":"999","NORAD_CAT_ID":"48335","BSTAR":"0.00017066000000","EPHEMERIS_TYPE":"0","MEAN_ANOMALY":"258.7333","PERIOD":"95.592","MEAN_MOTION_DOT":"0.00002262","ECCENTRICITY":"0.00011410","OBJECT_NAME":"STARLINK-2441","OBJECT_TYPE":"PAYLOAD","ARG_OF_PERICENTER":"101.3784","SEMIMAJOR_AXIS":"6925.337","APOAPSIS":"547.992","TLE_LINE1":"1 48335U 21036BM  23004.45465556  .00002262  00000-0  17066-3 0  9999","RCS_SIZE":"LARGE"},{"RCS_SIZE":"LARGE","TLE_LINE1":"1 48353U 21038A   23004.46017811  .00000970  00000-0  84005-4 0  9991","APOAPSIS":"548.107","SEMIMAJOR_AXIS":"6925.350","ARG_OF_PERICENTER":"96.8635","OBJECT_TYPE":"PAYLOAD","ECCENTRICITY":"0.00012880","OBJECT_NAME":"STARLINK-2613","MEAN_MOTION_DOT":"0.00000970","PERIOD":"95.592","MEAN_ANOMALY":"263.2500","BSTAR":"0.00008400500000","EPHEMERIS_TYPE":"0","NORAD_CAT_ID":"48353","ELEMENT_SET_NO":"999","CLASSIFICATION_TYPE":"U","DECAY_DATE":null,"TLE_LINE2":"2 48353  53.0530 170.0971 0001288  96.8635 263.2500 15.06399380 92151","SITE":"AFETR","CENTER_NAME":"EARTH","GP_ID":"222159310","REV_AT_EPOCH":"9215","RA_OF_ASC_NODE":"170.0971","REF_FRAME":"TEME","COUNTRY_CODE":"US","TIME_SYSTEM":"UTC","MEAN_ELEMENT_THEORY":"SGP4","LAUNCH_DATE":"2021-05-04","INCLINATION":"53.0530","EPOCH":"2023-01-04T11:02:39.388704","PERIAPSIS":"546.323","OBJECT_ID":"2021-038A","MEAN_MOTION_DDOT":"0.0000000000000","FILE":"3731823","MEAN_MOTION":"15.06399380"},{"OBJECT_ID":"2021-038B","PERIAPSIS":"546.286","MEAN_MOTION":"15.06401842","MEAN_MOTION_DDOT":"0.0000000000000","FILE":"3731823","LAUNCH_DATE":"2021-05-04","MEAN_ELEMENT_THEORY":"SGP4","INCLINATION":"53.0529","EPOCH":"2023-01-04T10:57:20.590848","TIME_SYSTEM":"UTC","REF_FRAME":"TEME","RA_OF_ASC_NODE":"170.1079","REV_AT_EPOCH":"9215","COUNTRY_CODE":"US","SITE":"AFETR","TLE_LINE2":"2 48354  53.0529 170.1079 0001331  78.6446 281.4692 15.06401842 92158","GP_ID":"222158065","CENTER_NAME":"EARTH","ELEMENT_SET_NO":"999","NORAD_CAT_ID":"48354","DECAY_DATE":null,"CLASSIFICATION_TYPE":"U","PERIOD":"95.592","MEAN_MOTION_DOT":"0.00001232","BSTAR":"0.00010161000000","EPHEMERIS_TYPE":"0","MEAN_ANOMALY":"281.4692","OBJECT_TYPE":"PAYLOAD","ARG_OF_PERICENTER":"78.6446","SEMIMAJOR_AXIS":"6925.343","ECCENTRICITY":"0.00013310","OBJECT_NAME":"STARLINK-2674","RCS_SIZE":"LARGE","APOAPSIS":"548.130","TLE_LINE1":"1 48354U 21038B   23004.45648832  .00001232  00000-0  10161-3 0  9997"},{"REV_AT_EPOCH":"9278","RA_OF_ASC_NODE":"168.9396","REF_FRAME":"TEME","COUNTRY_CODE":"US","TLE_LINE2":"2 48355  53.0529 168.9396 0001451  71.9376 288.1771 15.06404576 92785","SITE":"AFETR","CENTER_NAME":"EARTH","GP_ID":"222192898","OBJECT_ID":"2021-038C","PERIAPSIS":"546.195","MEAN_MOTION":"15.06404576","FILE":"3731994","MEAN_MOTION_DDOT":"0.0000000000000","LAUNCH_DATE":"2021-05-04","MEAN_ELEMENT_THEORY":"SGP4","INCLINATION":"53.0529","EPOCH":"2023-01-04T17:14:10.909248","TIME_SYSTEM":"UTC","OBJECT_TYPE":"PAYLOAD","ARG_OF_PERICENTER":"71.9376","SEMIMAJOR_AXIS":"6925.335","OBJECT_NAME":"STARLINK-2635","ECCENTRICITY":"0.00014510","RCS_SIZE":"LARGE","TLE_LINE1":"1 48355U 21038C   23004.71818182  .00002005  00000-0  15342-3 0  9999","APOAPSIS":"548.204","NORAD_CAT_ID":"48355","ELEMENT_SET_NO":"999","CLASSIFICATION_TYPE":"U","DECAY_DATE":null,"PERIOD":"95.592","MEAN_MOTION_DOT":"0.00002005","BSTAR":"0.00015342000000","EPHEMERIS_TYPE":"0","MEAN_ANOMALY":"288.1771"},{"RCS_SIZE":"LARGE","APOAPSIS":"548.108","TLE_LINE1":"1 48356U 21038D   23004.44911803  .00001351  00000-0  10959-3 0  9996","OBJECT_TYPE":"PAYLOAD","SEMIMAJOR_AXIS":"6925.334","ARG_OF_PERICENTER":"81.8795","ECCENTRICITY":"0.00013120","OBJECT_NAME":"STARLINK-2637","PERIOD":"95.592","MEAN_MOTION_DOT":"0.00001351","EPHEMERIS_TYPE":"0","BSTAR":"0.00010959000000","MEAN_ANOMALY":"278.2343","ELEMENT_SET_NO":"999","NORAD_CAT_ID":"48356","DECAY_DATE":null,"CLASSIFICATION_TYPE":"U","SITE":"AFETR","TLE_LINE2":"2 48356  53.0554 170.1380 0001312  81.8795 278.2343 15.06404648 92159","GP_ID":"222158566","CENTER_NAME":"EARTH","REF_FRAME":"TEME","REV_AT_EPOCH":"9215","RA_OF_ASC_NODE":"170.1380","COUNTRY_CODE":"US","LAUNCH_DATE":"2021-05-04","INCLINATION":"53.0554","EPOCH":"2023-01-04T10:46:43.797792","MEAN_ELEMENT_THEORY":"SGP4","TIME_SYSTEM":"UTC","OBJECT_ID":"2021-038D","PERIAPSIS":"546.291","MEAN_MOTION":"15.06404648","FILE":"3731823","MEAN_MOTION_DDOT":"0.0000000000000"},{"ARG_OF_PERICENTER":"63.3246","SEMIMAJOR_AXIS":"6925.340","OBJECT_TYPE":"PAYLOAD","ECCENTRICITY":"0.00014610","OBJECT_NAME":"STARLINK-2636","RCS_SIZE":"LARGE","TLE_LINE1":"1 48357U 21038E   23004.44817767  .00001868  00000-0  14427-3 0  9998","APOAPSIS":"548.217","NORAD_CAT_ID":"48357","ELEMENT_SET_NO":"999","CLASSIFICATION_TYPE":"U","DECAY_DATE":null,"MEAN_MOTION_DOT":"0.00001868","PERIOD":"95.592","MEAN_ANOMALY":"296.7892","EPHEMERIS_TYPE":"0","BSTAR":"0.00014427000000","REV_AT_EPOCH":"9215","RA_OF_ASC_NODE":"170.1878","REF_FRAME":"TEME","COUNTRY_CODE":"US","TLE_LINE2":"2 48357  53.0546 170.1878 0001461  63.3246 296.7892 15.06402661 92151","SITE":"AFETR","CENTER_NAME":"EARTH","GP_ID":"222158810","PERIAPSIS":"546.194","OBJECT_ID":"2021-038E","FILE":"3731823","MEAN_MOTION_DDOT":"0.0000000000000","MEAN_MOTION":"15.06402661","TIME_SYSTEM":"UTC","LAUNCH_DATE":"2021-05-04","EPOCH":"2023-01-04T10:45:22.550688","INCLINATION":"53.0546","MEAN_ELEMENT_THEORY":"SGP4"}];
